{"fetched_at":"2026-07-08T17:59:45.428Z","source":"https://celestrak.org/NORAD/elements/gp.php?NAME=GHGSAT&FORMAT=JSON","constellation":"ghgsat","records":[{"OBJECT_NAME":"GHGSAT-C1","OBJECT_ID":"2020-061G","EPOCH":"2026-07-08T11:39:18.756000","CLASSIFICATION_TYPE":"U","MEAN_MOTION":15.73046278,"ECCENTRICITY":0.0000554,"INCLINATION":97.2092,"RA_OF_ASC_NODE":275.333,"ARG_OF_PERICENTER":175.2651,"MEAN_ANOMALY":184.8619,"EPHEMERIS_TYPE":0,"NORAD_CAT_ID":46278,"ELEMENT_SET_NO":999,"REV_AT_EPOCH":32682,"BSTAR":0.00023496,"MEAN_MOTION_DOT":0.00031965,"MEAN_MOTION_DDOT":0},{"OBJECT_NAME":"GHGSAT-C2","OBJECT_ID":"2021-006DA","EPOCH":"2026-07-08T02:24:50.939712","CLASSIFICATION_TYPE":"U","MEAN_MOTION":15.38050102,"ECCENTRICITY":0.0006906,"INCLINATION":97.2139,"RA_OF_ASC_NODE":236.0073,"ARG_OF_PERICENTER":94.4261,"MEAN_ANOMALY":265.7774,"EPHEMERIS_TYPE":0,"NORAD_CAT_ID":47509,"ELEMENT_SET_NO":999,"REV_AT_EPOCH":30306,"BSTAR":0.000099766,"MEAN_MOTION_DOT":0.00003657,"MEAN_MOTION_DDOT":0},{"OBJECT_NAME":"GHGSAT-C3","OBJECT_ID":"2022-057F","EPOCH":"2026-07-08T11:56:44.741184","CLASSIFICATION_TYPE":"U","MEAN_MOTION":15.34622328,"ECCENTRICITY":0.0006828,"INCLINATION":97.6621,"RA_OF_ASC_NODE":335.9591,"ARG_OF_PERICENTER":55.6855,"MEAN_ANOMALY":304.5032,"EPHEMERIS_TYPE":0,"NORAD_CAT_ID":52737,"ELEMENT_SET_NO":999,"REV_AT_EPOCH":22880,"BSTAR":0.00013187,"MEAN_MOTION_DOT":0.00004341,"MEAN_MOTION_DDOT":0},{"OBJECT_NAME":"GHGSAT-C5","OBJECT_ID":"2022-057N","EPOCH":"2026-07-08T11:19:21.868032","CLASSIFICATION_TYPE":"U","MEAN_MOTION":15.34598915,"ECCENTRICITY":0.0007489,"INCLINATION":97.6708,"RA_OF_ASC_NODE":337.5309,"ARG_OF_PERICENTER":52.9047,"MEAN_ANOMALY":307.2878,"EPHEMERIS_TYPE":0,"NORAD_CAT_ID":52744,"ELEMENT_SET_NO":999,"REV_AT_EPOCH":22880,"BSTAR":0.00012893,"MEAN_MOTION_DOT":0.00004239,"MEAN_MOTION_DDOT":0},{"OBJECT_NAME":"GHGSAT-C4","OBJECT_ID":"2022-057Q","EPOCH":"2026-07-08T12:26:30.520320","CLASSIFICATION_TYPE":"U","MEAN_MOTION":15.34609796,"ECCENTRICITY":0.0006764,"INCLINATION":97.6547,"RA_OF_ASC_NODE":334.7903,"ARG_OF_PERICENTER":41.1956,"MEAN_ANOMALY":318.9796,"EPHEMERIS_TYPE":0,"NORAD_CAT_ID":52746,"ELEMENT_SET_NO":999,"REV_AT_EPOCH":22881,"BSTAR":0.00013066,"MEAN_MOTION_DOT":0.00004298,"MEAN_MOTION_DDOT":0},{"OBJECT_NAME":"GHGSAT-C8","OBJECT_ID":"2023-054J","EPOCH":"2026-07-08T13:10:35.925024","CLASSIFICATION_TYPE":"U","MEAN_MOTION":15.53623373,"ECCENTRICITY":0.0003927,"INCLINATION":97.2961,"RA_OF_ASC_NODE":99.1429,"ARG_OF_PERICENTER":26.1555,"MEAN_ANOMALY":333.9896,"EPHEMERIS_TYPE":0,"NORAD_CAT_ID":56186,"ELEMENT_SET_NO":999,"REV_AT_EPOCH":18175,"BSTAR":0.00018632,"MEAN_MOTION_DOT":0.00011788,"MEAN_MOTION_DDOT":0},{"OBJECT_NAME":"GHGSAT-C6","OBJECT_ID":"2023-054AC","EPOCH":"2026-07-08T12:21:48.276576","CLASSIFICATION_TYPE":"U","MEAN_MOTION":15.53601452,"ECCENTRICITY":0.0004158,"INCLINATION":97.3025,"RA_OF_ASC_NODE":99.8059,"ARG_OF_PERICENTER":342.2849,"MEAN_ANOMALY":17.8259,"EPHEMERIS_TYPE":0,"NORAD_CAT_ID":56204,"ELEMENT_SET_NO":999,"REV_AT_EPOCH":18176,"BSTAR":0.0001767,"MEAN_MOTION_DOT":0.00011165,"MEAN_MOTION_DDOT":0},{"OBJECT_NAME":"GHGSAT-C7","OBJECT_ID":"2023-054AH","EPOCH":"2026-07-08T11:59:30.412320","CLASSIFICATION_TYPE":"U","MEAN_MOTION":15.50344371,"ECCENTRICITY":0.0005643,"INCLINATION":97.2977,"RA_OF_ASC_NODE":98.1458,"ARG_OF_PERICENTER":334.7932,"MEAN_ANOMALY":25.3043,"EPHEMERIS_TYPE":0,"NORAD_CAT_ID":56209,"ELEMENT_SET_NO":999,"REV_AT_EPOCH":18169,"BSTAR":0.00013527,"MEAN_MOTION_DOT":0.00007581,"MEAN_MOTION_DDOT":0},{"OBJECT_NAME":"GHGSAT-C12","OBJECT_ID":"2025-135B","EPOCH":"2026-07-08T12:09:53.270784","CLASSIFICATION_TYPE":"U","MEAN_MOTION":15.20417277,"ECCENTRICITY":0.0006457,"INCLINATION":97.4762,"RA_OF_ASC_NODE":304.128,"ARG_OF_PERICENTER":98.9711,"MEAN_ANOMALY":261.2255,"EPHEMERIS_TYPE":0,"NORAD_CAT_ID":64529,"ELEMENT_SET_NO":999,"REV_AT_EPOCH":5806,"BSTAR":0.00011113,"MEAN_MOTION_DOT":0.00002354,"MEAN_MOTION_DDOT":0},{"OBJECT_NAME":"GHGSAT-C13","OBJECT_ID":"2025-135W","EPOCH":"2026-07-08T11:58:13.213056","CLASSIFICATION_TYPE":"U","MEAN_MOTION":15.21355044,"ECCENTRICITY":0.0002163,"INCLINATION":97.4791,"RA_OF_ASC_NODE":304.723,"ARG_OF_PERICENTER":74.4713,"MEAN_ANOMALY":285.6761,"EPHEMERIS_TYPE":0,"NORAD_CAT_ID":64548,"ELEMENT_SET_NO":999,"REV_AT_EPOCH":5809,"BSTAR":0.00017605,"MEAN_MOTION_DOT":0.00003874,"MEAN_MOTION_DDOT":0}]}
