GHGSAT-C1               
1 46278U 20061G   26189.48563375  .00031965  00000+0  23496-3 0  9993
2 46278  97.2092 275.3330 0000554 175.2651 184.8619 15.73046278326823
GHGSAT-C2               
1 47509U 21006DA  26189.10058958  .00003657  00000+0  99766-4 0  9997
2 47509  97.2139 236.0073 0006906  94.4261 265.7774 15.38050102303061
GHGSAT-C3               
1 52737U 22057F   26189.49774006  .00004341  00000+0  13187-3 0  9997
2 52737  97.6621 335.9591 0006828  55.6855 304.5032 15.34622328228803
GHGSAT-C5               
1 52744U 22057N   26189.47178088  .00004239  00000+0  12893-3 0  9990
2 52744  97.6708 337.5309 0007489  52.9047 307.2878 15.34598915228801
GHGSAT-C4               
1 52746U 22057Q   26189.51840880  .00004298  00000+0  13066-3 0  9991
2 52746  97.6547 334.7903 0006764  41.1956 318.9796 15.34609796228816
GHGSAT-C8               
1 56186U 23054J   26189.54902691  .00011788  00000+0  18632-3 0  9999
2 56186  97.2961  99.1429 0003927  26.1555 333.9896 15.53623373181752
GHGSAT-C6               
1 56204U 23054AC  26189.51514209  .00011165  00000+0  17670-3 0  9991
2 56204  97.3025  99.8059 0004158 342.2849  17.8259 15.53601452181762
GHGSAT-C7               
1 56209U 23054AH  26189.49965755  .00007581  00000+0  13527-3 0  9993
2 56209  97.2977  98.1458 0005643 334.7932  25.3043 15.50344371181694
GHGSAT-C12              
1 64529U 25135B   26189.50686656  .00002354  00000+0  11113-3 0  9993
2 64529  97.4762 304.1280 0006457  98.9711 261.2255 15.20417277 58066
GHGSAT-C13              
1 64548U 25135W   26189.49876404  .00003874  00000+0  17605-3 0  9994
2 64548  97.4791 304.7230 0002163  74.4713 285.6761 15.21355044 58090
